{
  "type": "FeatureCollection",
  "features": [
    {
      "type": "Feature",
      "properties": {
        "norad_id": 33886,
        "name": "IRIDIUM 33 DEB",
        "group": "iridium-33-debris",
        "lat": -51.49252359841359,
        "lon": 63.44117608372982,
        "alt_km": 774.1609086756835,
        "timestamp": "2025-12-10T21:43:22.475707+00:00",
        "meta_object_name": "IRIDIUM 33 DEB",
        "meta_object_id": "1997-051BF",
        "meta_epoch": "2025-12-10T11:58:44.159808",
        "meta_mean_motion": 14.36047962,
        "meta_eccentricity": 0.00121754,
        "meta_inclination": 86.383,
        "meta_ra_of_asc_node": 68.1718,
        "meta_arg_of_pericenter": 250.4448,
        "meta_mean_anomaly": 120.2843,
        "meta_ephemeris_type": 0,
        "meta_classification_type": "U",
        "meta_norad_cat_id": 33886,
        "meta_element_set_no": 999,
        "meta_rev_at_epoch": 88020,
        "meta_bstar": 0.00032782279,
        "meta_mean_motion_dot": 9.73e-06,
        "meta_mean_motion_ddot": 0,
        "tle_line1": "1 33886U 97051BF  25344.49912222  .00000973  00000+0  32782-3 0  9992",
        "tle_line2": "2 33886  86.3830  68.1718 0012175 250.4448 120.2843 14.36047962880202"
      },
      "geometry": {
        "type": "Point",
        "coordinates": [
          63.44117608372982,
          -51.49252359841359
        ]
      }
    },
    {
      "type": "Feature",
      "properties": {
        "norad_id": 33887,
        "name": "IRIDIUM 33 DEB",
        "group": "iridium-33-debris",
        "lat": -56.752737677921495,
        "lon": -170.15912898452413,
        "alt_km": 771.8238144768802,
        "timestamp": "2025-12-10T21:43:22.475718+00:00",
        "meta_object_name": "IRIDIUM 33 DEB",
        "meta_object_id": "1997-051BG",
        "meta_epoch": "2025-12-10T09:13:38.157024",
        "meta_mean_motion": 14.37217786,
        "meta_eccentricity": 0.00042565,
        "meta_inclination": 86.3045,
        "meta_ra_of_asc_node": 4.4073,
        "meta_arg_of_pericenter": 237.1767,
        "meta_mean_anomaly": 187.5472,
        "meta_ephemeris_type": 0,
        "meta_classification_type": "U",
        "meta_norad_cat_id": 33887,
        "meta_element_set_no": 999,
        "meta_rev_at_epoch": 88131,
        "meta_bstar": 0.00022350195,
        "meta_mean_motion_dot": 6.85e-06,
        "meta_mean_motion_ddot": 0,
        "tle_line1": "1 33887U 97051BG  25344.38446941  .00000685  00000+0  22350-3 0  9991",
        "tle_line2": "2 33887  86.3045   4.4073 0004256 237.1767 187.5472 14.37217786881316"
      },
      "geometry": {
        "type": "Point",
        "coordinates": [
          -170.15912898452413,
          -56.752737677921495
        ]
      }
    },
    {
      "type": "Feature",
      "properties": {
        "norad_id": 33953,
        "name": "IRIDIUM 33 DEB",
        "group": "iridium-33-debris",
        "lat": -27.143260365861646,
        "lon": 52.717597802735014,
        "alt_km": 723.5342829567544,
        "timestamp": "2025-12-10T21:43:22.475728+00:00",
        "meta_object_name": "IRIDIUM 33 DEB",
        "meta_object_id": "1997-051BN",
        "meta_epoch": "2025-12-09T23:18:17.054208",
        "meta_mean_motion": 14.5527898,
        "meta_eccentricity": 0.00184582,
        "meta_inclination": 86.384,
        "meta_ra_of_asc_node": 54.9808,
        "meta_arg_of_pericenter": 111.2598,
        "meta_mean_anomaly": 11.2257,
        "meta_ephemeris_type": 0,
        "meta_classification_type": "U",
        "meta_norad_cat_id": 33953,
        "meta_element_set_no": 999,
        "meta_rev_at_epoch": 88263,
        "meta_bstar": 0.0016887129,
        "meta_mean_motion_dot": 7.353e-05,
        "meta_mean_motion_ddot": 0,
        "tle_line1": "1 33953U 97051BN  25343.97103072  .00007353  00000+0  16887-2 0  9990",
        "tle_line2": "2 33953  86.3840  54.9808 0018458 111.2598  11.2257 14.55278980882635"
      },
      "geometry": {
        "type": "Point",
        "coordinates": [
          52.717597802735014,
          -27.143260365861646
        ]
      }
    },
    {
      "type": "Feature",
      "properties": {
        "norad_id": 33960,
        "name": "IRIDIUM 33 DEB",
        "group": "iridium-33-debris",
        "lat": -59.21016438560746,
        "lon": -75.93447805068324,
        "alt_km": 623.6571317492899,
        "timestamp": "2025-12-10T21:43:22.475739+00:00",
        "meta_object_name": "IRIDIUM 33 DEB",
        "meta_object_id": "1997-051BV",
        "meta_epoch": "2025-12-10T14:42:23.035968",
        "meta_mean_motion": 14.85002414,
        "meta_eccentricity": 0.00074882,
        "meta_inclination": 86.2533,
        "meta_ra_of_asc_node": 290.517,
        "meta_arg_of_pericenter": 65.6834,
        "meta_mean_anomaly": 113.1281,
        "meta_ephemeris_type": 0,
        "meta_classification_type": "U",
        "meta_norad_cat_id": 33960,
        "meta_element_set_no": 999,
        "meta_rev_at_epoch": 88835,
        "meta_bstar": 0.0050642782,
        "meta_mean_motion_dot": 0.00043449,
        "meta_mean_motion_ddot": 0,
        "tle_line1": "1 33960U 97051BV  25344.61276662  .00043449  00000+0  50643-2 0  9990",
        "tle_line2": "2 33960  86.2533 290.5170 0007488  65.6834 113.1281 14.85002414888351"
      },
      "geometry": {
        "type": "Point",
        "coordinates": [
          -75.93447805068324,
          -59.21016438560746
        ]
      }
    },
    {
      "type": "Feature",
      "properties": {
        "norad_id": 33966,
        "name": "IRIDIUM 33 DEB",
        "group": "iridium-33-debris",
        "lat": 43.040009407093685,
        "lon": -136.56302104394675,
        "alt_km": 720.8109329913796,
        "timestamp": "2025-12-10T21:43:22.475750+00:00",
        "meta_object_name": "IRIDIUM 33 DEB",
        "meta_object_id": "1997-051CB",
        "meta_epoch": "2025-12-10T13:26:05.416224",
        "meta_mean_motion": 14.49580094,
        "meta_eccentricity": 0.00071516,
        "meta_inclination": 86.3923,
        "meta_ra_of_asc_node": 46.9627,
        "meta_arg_of_pericenter": 195.5015,
        "meta_mean_anomaly": 300.3597,
        "meta_ephemeris_type": 0,
        "meta_classification_type": "U",
        "meta_norad_cat_id": 33966,
        "meta_element_set_no": 999,
        "meta_rev_at_epoch": 88410,
        "meta_bstar": 0.00084733131,
        "meta_mean_motion_dot": 3.271e-05,
        "meta_mean_motion_ddot": 0,
        "tle_line1": "1 33966U 97051CB  25344.55978491  .00003271  00000+0  84733-3 0  9995",
        "tle_line2": "2 33966  86.3923  46.9627 0007151 195.5015 300.3597 14.49580094884106"
      },
      "geometry": {
        "type": "Point",
        "coordinates": [
          -136.56302104394675,
          43.040009407093685
        ]
      }
    },
    {
      "type": "Feature",
      "properties": {
        "norad_id": 34071,
        "name": "IRIDIUM 33 DEB",
        "group": "iridium-33-debris",
        "lat": -24.25268632534869,
        "lon": -159.72445301738657,
        "alt_km": 733.292696569958,
        "timestamp": "2025-12-10T21:43:22.475761+00:00",
        "meta_object_name": "IRIDIUM 33 DEB",
        "meta_object_id": "1997-051CE",
        "meta_epoch": "2025-12-10T12:30:01.392480",
        "meta_mean_motion": 14.49448907,
        "meta_eccentricity": 0.00098696,
        "meta_inclination": 86.3457,
        "meta_ra_of_asc_node": 18.7926,
        "meta_arg_of_pericenter": 113.5501,
        "meta_mean_anomaly": 246.6741,
        "meta_ephemeris_type": 0,
        "meta_classification_type": "U",
        "meta_norad_cat_id": 34071,
        "meta_element_set_no": 999,
        "meta_rev_at_epoch": 88302,
        "meta_bstar": 0.00087237659,
        "meta_mean_motion_dot": 3.36e-05,
        "meta_mean_motion_ddot": 0,
        "tle_line1": "1 34071U 97051CE  25344.52084945  .00003360  00000+0  87238-3 0  9994",
        "tle_line2": "2 34071  86.3457  18.7926 0009869 113.5501 246.6741 14.49448907883022"
      },
      "geometry": {
        "type": "Point",
        "coordinates": [
          -159.72445301738657,
          -24.25268632534869
        ]
      }
    },
    {
      "type": "Feature",
      "properties": {
        "norad_id": 34077,
        "name": "IRIDIUM 33 DEB",
        "group": "iridium-33-debris",
        "lat": -54.86499242143608,
        "lon": 47.16253793912004,
        "alt_km": 686.139768353888,
        "timestamp": "2025-12-10T21:43:22.475774+00:00",
        "meta_object_name": "IRIDIUM 33 DEB",
        "meta_object_id": "1997-051CL",
        "meta_epoch": "2025-12-10T05:52:42.153312",
        "meta_mean_motion": 14.64781175,
        "meta_eccentricity": 0.0010464,
        "meta_inclination": 86.3859,
        "meta_ra_of_asc_node": 52.6061,
        "meta_arg_of_pericenter": 47.385,
        "meta_mean_anomaly": 18.7078,
        "meta_ephemeris_type": 0,
        "meta_classification_type": "U",
        "meta_norad_cat_id": 34077,
        "meta_element_set_no": 999,
        "meta_rev_at_epoch": 88296,
        "meta_bstar": 0.00232,
        "meta_mean_motion_dot": 0.00012409,
        "meta_mean_motion_ddot": 0,
        "tle_line1": "1 34077U 97051CL  25344.24493233  .00012409  00000+0  23200-2 0  9995",
        "tle_line2": "2 34077  86.3859  52.6061 0010464  47.3850  18.7078 14.64781175882962"
      },
      "geometry": {
        "type": "Point",
        "coordinates": [
          47.16253793912004,
          -54.86499242143608
        ]
      }
    }
  ]
}